[{"OBJECT_NAME":"BEIDOU-3 M25 (C47)","OBJECT_ID":"2024-168B","EPOCH":"2026-03-03T09:48:07.049088","MEAN_MOTION":1.86230084,"ECCENTRICITY":0.00042767,"INCLINATION":54.5666,"RA_OF_ASC_NODE":305.9191,"ARG_OF_PERICENTER":318.372,"MEAN_ANOMALY":220.5115,"EPHEMERIS_TYPE":0,"CLASSIFICATION_TYPE":"U","NORAD_CAT_ID":61186,"ELEMENT_SET_NO":999,"REV_AT_EPOCH":981,"BSTAR":0,"MEAN_MOTION_DOT":-5.8e-7,"MEAN_MOTION_DDOT":0},{"OBJECT_NAME":"BEIDOU-3 M27 (C49)","OBJECT_ID":"2024-168C","EPOCH":"2026-03-04T02:00:21.844224","MEAN_MOTION":1.86230271,"ECCENTRICITY":0.0002971,"INCLINATION":54.5615,"RA_OF_ASC_NODE":305.879,"ARG_OF_PERICENTER":19.9023,"MEAN_ANOMALY":26.6369,"EPHEMERIS_TYPE":0,"CLASSIFICATION_TYPE":"U","NORAD_CAT_ID":61187,"ELEMENT_SET_NO":999,"REV_AT_EPOCH":730,"BSTAR":0,"MEAN_MOTION_DOT":-6.2e-7,"MEAN_MOTION_DDOT":0}]
